FENGYUN 1C DEB          
1 32223U 99025CVV 26116.19551293  .00002808  00000+0  12823-2 0  9993
2 32223  98.8272 200.3150 0044682 290.8474  97.7398 14.21823091661343
FENGYUN 1C DEB          
1 32224U 99025CVW 26116.85352396  .00000821  00000+0  29922-3 0  9992
2 32224  99.0033  78.2568 0076590  32.0405 328.5401 14.34303035976603
FENGYUN 1C DEB          
1 32225U 99025CVX 26115.40593618  .00000266  00000+0  16251-3 0  9991
2 32225  99.0685 171.0020 0071921 189.7228 170.2556 14.13159464700046
FENGYUN 1C DEB          
1 32230U 99025CWC 26115.93855756  .00012231  00000+0  25085-2 0  9998
2 32230  98.8775 279.4689 0047358  40.6424 110.3130 14.60144317626259
FENGYUN 1C DEB          
1 32234U 99025CWG 26109.02637149  .00000970  00000+0  69957-3 0  9993
2 32234  98.5232 314.2405 0135860 343.0855  16.5801 13.94623950949831
FENGYUN 1C DEB          
1 32241U 99025CWP 26116.34314920  .00003605  00000+0  12698-2 0  9990
2 32241  99.0605 156.2783 0144626 193.1510 166.5883 14.29777658957462
FENGYUN 1C DEB          
1 32242U 99025CWQ 26093.46407723  .00002181  00000+0  17396-2 0  9990
2 32242  97.2759 343.1654 0162099   5.6473 354.6468 13.85793445644696
FENGYUN 1C DEB          
1 32243U 99025CWR 26108.98037858  .00003222  00000+0  14443-2 0  9990
2 32243  98.2564 127.5277 0268628 120.6720 242.1221 14.05675027953751
FENGYUN 1C DEB          
1 32304U 99025CWV 26112.67049984  .00002426  00000+0  60402-3 0  9994
2 32304  99.4124  87.6398 0049040 196.4205 163.5401 14.52079839581729
FENGYUN 1C DEB          
1 32308U 99025CWZ 26114.57908902  .00001173  00000+0  69642-3 0  9996
2 32308  97.7643 153.7008 0107856  37.4232 323.4389 14.06171129672780
FENGYUN 1C DEB          
1 32311U 99025CXC 26110.53839905  .00001296  00000+0  17029-2 0  9995
2 32311 101.7297  17.6678 0407938 166.2491 195.0141 13.33936780 90546
FENGYUN 1C DEB          
1 32314U 99025CXF 26110.57082651  .00008848  00000+0  92708-3 0  9998
2 32314  98.8692 234.1710 0141982 110.2379 251.4161 14.82630129993370
FENGYUN 1C DEB          
1 32315U 99025CXG 26116.16870808  .00000130  00000+0  18529-3 0  9994
2 32315 100.8264 279.9193 0229130 144.6280 217.0304 13.66216772629240
FENGYUN 1C DEB          
1 32316U 99025CXH 26117.07567981  .00004853  00000+0  11774-2 0  9991
2 32316  99.5149 166.6613 0023846 281.2475 108.9962 14.53297031977424
FENGYUN 1C DEB          
1 32320U 99025CXM 26115.95964676  .00002231  00000+0  76041-3 0  9990
2 32320 100.3634   5.2014 0056214  32.4487 328.0129 14.36901320641002
