[{"OBJECT_NAME":"FENGYUN 1C DEB","OBJECT_ID":"1999-025CVV","EPOCH":"2026-04-26T04:41:32.317152","MEAN_MOTION":14.21823091,"ECCENTRICITY":0.00446828,"INCLINATION":98.8272,"RA_OF_ASC_NODE":200.315,"ARG_OF_PERICENTER":290.8474,"MEAN_ANOMALY":97.7398,"EPHEMERIS_TYPE":0,"CLASSIFICATION_TYPE":"U","NORAD_CAT_ID":32223,"ELEMENT_SET_NO":999,"REV_AT_EPOCH":66134,"BSTAR":0.001282268,"MEAN_MOTION_DOT":2.808e-5,"MEAN_MOTION_DDOT":0},{"OBJECT_NAME":"FENGYUN 1C DEB","OBJECT_ID":"1999-025CVW","EPOCH":"2026-04-26T20:29:04.470144","MEAN_MOTION":14.34303035,"ECCENTRICITY":0.00765902,"INCLINATION":99.0033,"RA_OF_ASC_NODE":78.2568,"ARG_OF_PERICENTER":32.0405,"MEAN_ANOMALY":328.5401,"EPHEMERIS_TYPE":0,"CLASSIFICATION_TYPE":"U","NORAD_CAT_ID":32224,"ELEMENT_SET_NO":999,"REV_AT_EPOCH":97660,"BSTAR":0.00029921583,"MEAN_MOTION_DOT":8.21e-6,"MEAN_MOTION_DDOT":0},{"OBJECT_NAME":"FENGYUN 1C DEB","OBJECT_ID":"1999-025CVX","EPOCH":"2026-04-25T09:44:32.885952","MEAN_MOTION":14.13159464,"ECCENTRICITY":0.0071921,"INCLINATION":99.0685,"RA_OF_ASC_NODE":171.002,"ARG_OF_PERICENTER":189.7228,"MEAN_ANOMALY":170.2556,"EPHEMERIS_TYPE":0,"CLASSIFICATION_TYPE":"U","NORAD_CAT_ID":32225,"ELEMENT_SET_NO":999,"REV_AT_EPOCH":70004,"BSTAR":0.00016250679,"MEAN_MOTION_DOT":2.66e-6,"MEAN_MOTION_DDOT":0},{"OBJECT_NAME":"FENGYUN 1C DEB","OBJECT_ID":"1999-025CWC","EPOCH":"2026-04-25T22:31:31.373184","MEAN_MOTION":14.60144317,"ECCENTRICITY":0.00473587,"INCLINATION":98.8775,"RA_OF_ASC_NODE":279.4689,"ARG_OF_PERICENTER":40.6424,"MEAN_ANOMALY":110.313,"EPHEMERIS_TYPE":0,"CLASSIFICATION_TYPE":"U","NORAD_CAT_ID":32230,"ELEMENT_SET_NO":999,"REV_AT_EPOCH":62625,"BSTAR":0.0025084528,"MEAN_MOTION_DOT":0.00012231,"MEAN_MOTION_DDOT":0},{"OBJECT_NAME":"FENGYUN 1C DEB","OBJECT_ID":"1999-025CWG","EPOCH":"2026-04-19T00:37:58.496736","MEAN_MOTION":13.9462395,"ECCENTRICITY":0.01358605,"INCLINATION":98.5232,"RA_OF_ASC_NODE":314.2405,"ARG_OF_PERICENTER":343.0855,"MEAN_ANOMALY":16.5801,"EPHEMERIS_TYPE":0,"CLASSIFICATION_TYPE":"U","NORAD_CAT_ID":32234,"ELEMENT_SET_NO":999,"REV_AT_EPOCH":94983,"BSTAR":0.00069957335,"MEAN_MOTION_DOT":9.7e-6,"MEAN_MOTION_DDOT":0},{"OBJECT_NAME":"FENGYUN 1C DEB","OBJECT_ID":"1999-025CWP","EPOCH":"2026-04-26T08:14:08.090880","MEAN_MOTION":14.29777658,"ECCENTRICITY":0.01446261,"INCLINATION":99.0605,"RA_OF_ASC_NODE":156.2783,"ARG_OF_PERICENTER":193.151,"MEAN_ANOMALY":166.5883,"EPHEMERIS_TYPE":0,"CLASSIFICATION_TYPE":"U","NORAD_CAT_ID":32241,"ELEMENT_SET_NO":999,"REV_AT_EPOCH":95746,"BSTAR":0.0012698426,"MEAN_MOTION_DOT":3.605e-5,"MEAN_MOTION_DDOT":0},{"OBJECT_NAME":"FENGYUN 1C DEB","OBJECT_ID":"1999-025CWQ","EPOCH":"2026-04-03T11:08:16.272672","MEAN_MOTION":13.85793445,"ECCENTRICITY":0.01620991,"INCLINATION":97.2759,"RA_OF_ASC_NODE":343.1654,"ARG_OF_PERICENTER":5.6473,"MEAN_ANOMALY":354.6468,"EPHEMERIS_TYPE":0,"CLASSIFICATION_TYPE":"U","NORAD_CAT_ID":32242,"ELEMENT_SET_NO":999,"REV_AT_EPOCH":64469,"BSTAR":0.0017396243,"MEAN_MOTION_DOT":2.181e-5,"MEAN_MOTION_DDOT":0},{"OBJECT_NAME":"FENGYUN 1C DEB","OBJECT_ID":"1999-025CWR","EPOCH":"2026-04-18T23:31:44.709312","MEAN_MOTION":14.05675027,"ECCENTRICITY":0.0268628,"INCLINATION":98.2564,"RA_OF_ASC_NODE":127.5277,"ARG_OF_PERICENTER":120.672,"MEAN_ANOMALY":242.1221,"EPHEMERIS_TYPE":0,"CLASSIFICATION_TYPE":"U","NORAD_CAT_ID":32243,"ELEMENT_SET_NO":999,"REV_AT_EPOCH":95375,"BSTAR":0.0014442697,"MEAN_MOTION_DOT":3.222e-5,"MEAN_MOTION_DDOT":0},{"OBJECT_NAME":"FENGYUN 1C DEB","OBJECT_ID":"1999-025CWV","EPOCH":"2026-04-22T16:05:31.186176","MEAN_MOTION":14.52079839,"ECCENTRICITY":0.00490404,"INCLINATION":99.4124,"RA_OF_ASC_NODE":87.6398,"ARG_OF_PERICENTER":196.4205,"MEAN_ANOMALY":163.5401,"EPHEMERIS_TYPE":0,"CLASSIFICATION_TYPE":"U","NORAD_CAT_ID":32304,"ELEMENT_SET_NO":999,"REV_AT_EPOCH":58172,"BSTAR":0.00060402166,"MEAN_MOTION_DOT":2.426e-5,"MEAN_MOTION_DDOT":0},{"OBJECT_NAME":"FENGYUN 1C DEB","OBJECT_ID":"1999-025CWZ","EPOCH":"2026-04-24T13:53:53.291328","MEAN_MOTION":14.06171129,"ECCENTRICITY":0.01078568,"INCLINATION":97.7643,"RA_OF_ASC_NODE":153.7008,"ARG_OF_PERICENTER":37.4232,"MEAN_ANOMALY":323.4389,"EPHEMERIS_TYPE":0,"CLASSIFICATION_TYPE":"U","NORAD_CAT_ID":32308,"ELEMENT_SET_NO":999,"REV_AT_EPOCH":67278,"BSTAR":0.0006964226,"MEAN_MOTION_DOT":1.173e-5,"MEAN_MOTION_DDOT":0},{"OBJECT_NAME":"FENGYUN 1C DEB","OBJECT_ID":"1999-025CXC","EPOCH":"2026-04-20T12:55:17.677920","MEAN_MOTION":13.3393678,"ECCENTRICITY":0.04079385,"INCLINATION":101.7297,"RA_OF_ASC_NODE":17.6678,"ARG_OF_PERICENTER":166.2491,"MEAN_ANOMALY":195.0141,"EPHEMERIS_TYPE":0,"CLASSIFICATION_TYPE":"U","NORAD_CAT_ID":32311,"ELEMENT_SET_NO":999,"REV_AT_EPOCH":9054,"BSTAR":0.0017029166,"MEAN_MOTION_DOT":1.296e-5,"MEAN_MOTION_DDOT":0},{"OBJECT_NAME":"FENGYUN 1C DEB","OBJECT_ID":"1999-025CXF","EPOCH":"2026-04-20T13:41:59.410464","MEAN_MOTION":14.82630129,"ECCENTRICITY":0.01419823,"INCLINATION":98.8692,"RA_OF_ASC_NODE":234.171,"ARG_OF_PERICENTER":110.2379,"MEAN_ANOMALY":251.4161,"EPHEMERIS_TYPE":0,"CLASSIFICATION_TYPE":"U","NORAD_CAT_ID":32314,"ELEMENT_SET_NO":999,"REV_AT_EPOCH":99337,"BSTAR":0.00092708192,"MEAN_MOTION_DOT":8.848e-5,"MEAN_MOTION_DDOT":0},{"OBJECT_NAME":"FENGYUN 1C DEB","OBJECT_ID":"1999-025CXG","EPOCH":"2026-04-26T04:02:56.378112","MEAN_MOTION":13.66216772,"ECCENTRICITY":0.02291301,"INCLINATION":100.8264,"RA_OF_ASC_NODE":279.9193,"ARG_OF_PERICENTER":144.628,"MEAN_ANOMALY":217.0304,"EPHEMERIS_TYPE":0,"CLASSIFICATION_TYPE":"U","NORAD_CAT_ID":32315,"ELEMENT_SET_NO":999,"REV_AT_EPOCH":62924,"BSTAR":0.00018529401,"MEAN_MOTION_DOT":1.3e-6,"MEAN_MOTION_DDOT":0},{"OBJECT_NAME":"FENGYUN 1C DEB","OBJECT_ID":"1999-025CXH","EPOCH":"2026-04-27T01:48:58.734720","MEAN_MOTION":14.5329703,"ECCENTRICITY":0.0023847,"INCLINATION":99.5149,"RA_OF_ASC_NODE":166.6613,"ARG_OF_PERICENTER":281.2475,"MEAN_ANOMALY":108.9962,"EPHEMERIS_TYPE":0,"CLASSIFICATION_TYPE":"U","NORAD_CAT_ID":32316,"ELEMENT_SET_NO":999,"REV_AT_EPOCH":97742,"BSTAR":0.0011774,"MEAN_MOTION_DOT":4.853e-5,"MEAN_MOTION_DDOT":0},{"OBJECT_NAME":"FENGYUN 1C DEB","OBJECT_ID":"1999-025CXM","EPOCH":"2026-04-25T23:01:53.480064","MEAN_MOTION":14.3690132,"ECCENTRICITY":0.00562145,"INCLINATION":100.3634,"RA_OF_ASC_NODE":5.2014,"ARG_OF_PERICENTER":32.4487,"MEAN_ANOMALY":328.0129,"EPHEMERIS_TYPE":0,"CLASSIFICATION_TYPE":"U","NORAD_CAT_ID":32320,"ELEMENT_SET_NO":999,"REV_AT_EPOCH":64100,"BSTAR":0.00076041001,"MEAN_MOTION_DOT":2.231e-5,"MEAN_MOTION_DDOT":0}]
